{
    "links": {
        "self": "http://www.neowsapp.com/rest/v1/neo/3311676?api_key=iIulBulltgU6a56xZRHN4H3l9WmuAYTsLGpBGhQ2"
    },
    "id": "3311676",
    "neo_reference_id": "3311676",
    "name": "(2006 AC3)",
    "designation": "2006 AC3",
    "nasa_jpl_url": "http://ssd.jpl.nasa.gov/sbdb.cgi?sstr=3311676",
    "absolute_magnitude_h": 24.2,
    "estimated_diameter": {
        "kilometers": {
            "estimated_diameter_min": 0.0384197891,
            "estimated_diameter_max": 0.0859092601
        },
        "meters": {
            "estimated_diameter_min": 38.4197891064,
            "estimated_diameter_max": 85.9092601232
        },
        "miles": {
            "estimated_diameter_min": 0.0238729428,
            "estimated_diameter_max": 0.0533815229
        },
        "feet": {
            "estimated_diameter_min": 126.0491808919,
            "estimated_diameter_max": 281.8545369825
        }
    },
    "is_potentially_hazardous_asteroid": false,
    "close_approach_data": [
        {
            "close_approach_date": "2005-12-22",
            "close_approach_date_full": "2005-Dec-22 08:40",
            "epoch_date_close_approach": 1135240800000,
            "relative_velocity": {
                "kilometers_per_second": "8.2979113189",
                "kilometers_per_hour": "29872.4807479834",
                "miles_per_hour": "18561.5978292123"
            },
            "miss_distance": {
                "astronomical": "0.0441954124",
                "lunar": "17.1920154236",
                "kilometers": "6611539.558811588",
                "miles": "4108220.1811443944"
            },
            "orbiting_body": "Earth"
        }
    ],
    "orbital_data": {
        "orbit_id": "9",
        "orbit_determination_date": "2017-04-06 09:09:29",
        "first_observation_date": "2006-01-06",
        "last_observation_date": "2006-01-25",
        "data_arc_in_days": 19,
        "observations_used": 32,
        "orbit_uncertainty": "8",
        "minimum_orbit_intersection": ".0320169",
        "jupiter_tisserand_invariant": "3.315",
        "epoch_osculation": "2453744.5",
        "eccentricity": ".5739768663953265",
        "semi_major_axis": "2.347099164836612",
        "inclination": "3.058972644084391",
        "ascending_node_longitude": "108.7373252938905",
        "orbital_period": "1313.395685304244",
        "perihelion_distance": ".9999185410846054",
        "perihelion_argument": "322.6728679795228",
        "aphelion_distance": "3.694279788588619",
        "perihelion_time": "2453712.268790449380",
        "mean_anomaly": "8.834531412013396",
        "mean_motion": ".2740986619859401",
        "equinox": "J2000",
        "orbit_class": {
            "orbit_class_type": "APO",
            "orbit_class_description": "Near-Earth asteroid orbits which cross the Earth’s orbit similar to that of 1862 Apollo",
            "orbit_class_range": "a (semi-major axis) > 1.0 AU; q (perihelion) < 1.017 AU"
        }
    },
    "is_sentry_object": false
}